{
  "type": "FeatureCollection",
  "features": [
    {
      "type": "Feature",
      "properties": {
        "norad_id": 30693,
        "name": "FENGYUN 1C DEB",
        "group": "fengyun-1c-debris",
        "lat": 48.042130516377895,
        "lon": 165.5434695168349,
        "alt_km": 824.4801291295871,
        "timestamp": "2025-12-16T17:51:11.209510+00:00",
        "meta_object_name": "FENGYUN 1C DEB",
        "meta_object_id": "1999-025ARB",
        "meta_epoch": "2025-12-15T22:32:39.704352",
        "meta_mean_motion": 14.13290646,
        "meta_eccentricity": 0.00294301,
        "meta_inclination": 98.686,
        "meta_ra_of_asc_node": 334.9731,
        "meta_arg_of_pericenter": 158.2977,
        "meta_mean_anomaly": 201.945,
        "meta_ephemeris_type": 0,
        "meta_classification_type": "U",
        "meta_norad_cat_id": 30693,
        "meta_element_set_no": 999,
        "meta_rev_at_epoch": 96980,
        "meta_bstar": 0.00030984814,
        "meta_mean_motion_dot": 5.41e-06,
        "meta_mean_motion_ddot": 0,
        "tle_line1": "1 30693U 99025ARB 25349.93934843  .00000541  00000+0  30985-3 0  9999",
        "tle_line2": "2 30693  98.6860 334.9731 0029430 158.2977 201.9450 14.13290646969806"
      },
      "geometry": {
        "type": "Point",
        "coordinates": [
          165.5434695168349,
          48.042130516377895
        ]
      }
    },
    {
      "type": "Feature",
      "properties": {
        "norad_id": 30694,
        "name": "FENGYUN 1C DEB",
        "group": "fengyun-1c-debris",
        "lat": 0.6812332716917053,
        "lon": -42.61436894691973,
        "alt_km": 592.7129451964502,
        "timestamp": "2025-12-16T17:51:11.209521+00:00",
        "meta_object_name": "FENGYUN 1C DEB",
        "meta_object_id": "1999-025ARC",
        "meta_epoch": "2025-12-15T20:50:59.796960",
        "meta_mean_motion": 14.86573324,
        "meta_eccentricity": 0.01298518,
        "meta_inclination": 99.0468,
        "meta_ra_of_asc_node": 316.4988,
        "meta_arg_of_pericenter": 284.8035,
        "meta_mean_anomaly": 73.8822,
        "meta_ephemeris_type": 0,
        "meta_classification_type": "U",
        "meta_norad_cat_id": 30694,
        "meta_element_set_no": 999,
        "meta_rev_at_epoch": 142,
        "meta_bstar": 0.0011867577,
        "meta_mean_motion_dot": 0.00012206,
        "meta_mean_motion_ddot": 0,
        "tle_line1": "1 30694U 99025ARC 25349.86874765  .00012206  00000+0  11868-2 0  9997",
        "tle_line2": "2 30694  99.0468 316.4988 0129851 284.8035  73.8822 14.86573324  1425"
      },
      "geometry": {
        "type": "Point",
        "coordinates": [
          -42.61436894691973,
          0.6812332716917053
        ]
      }
    },
    {
      "type": "Feature",
      "properties": {
        "norad_id": 30696,
        "name": "FENGYUN 1C DEB",
        "group": "fengyun-1c-debris",
        "lat": 56.34283862895507,
        "lon": 26.905858501905723,
        "alt_km": 701.4831850837008,
        "timestamp": "2025-12-16T17:51:11.209531+00:00",
        "meta_object_name": "FENGYUN 1C DEB",
        "meta_object_id": "1999-025ARE",
        "meta_epoch": "2025-12-14T14:45:42.808320",
        "meta_mean_motion": 14.44776257,
        "meta_eccentricity": 0.00898713,
        "meta_inclination": 98.3893,
        "meta_ra_of_asc_node": 37.6092,
        "meta_arg_of_pericenter": 120.1704,
        "meta_mean_anomaly": 32.1187,
        "meta_ephemeris_type": 0,
        "meta_classification_type": "U",
        "meta_norad_cat_id": 30696,
        "meta_element_set_no": 999,
        "meta_rev_at_epoch": 98331,
        "meta_bstar": 0.00079689637,
        "meta_mean_motion_dot": 2.863e-05,
        "meta_mean_motion_ddot": 0,
        "tle_line1": "1 30696U 99025ARE 25348.61507880  .00002863  00000+0  79690-3 0  9998",
        "tle_line2": "2 30696  98.3893  37.6092 0089871 120.1704  32.1187 14.44776257983314"
      },
      "geometry": {
        "type": "Point",
        "coordinates": [
          26.905858501905723,
          56.34283862895507
        ]
      }
    },
    {
      "type": "Feature",
      "properties": {
        "norad_id": 30697,
        "name": "FENGYUN 1C DEB",
        "group": "fengyun-1c-debris",
        "lat": 78.55255560498614,
        "lon": -81.67567302579174,
        "alt_km": 824.9133647311992,
        "timestamp": "2025-12-16T17:51:11.209542+00:00",
        "meta_object_name": "FENGYUN 1C DEB",
        "meta_object_id": "1999-025ARF",
        "meta_epoch": "2025-12-15T14:56:36.208320",
        "meta_mean_motion": 14.13538077,
        "meta_eccentricity": 0.00881273,
        "meta_inclination": 98.9072,
        "meta_ra_of_asc_node": 46.4528,
        "meta_arg_of_pericenter": 177.2425,
        "meta_mean_anomaly": 338.4172,
        "meta_ephemeris_type": 0,
        "meta_classification_type": "U",
        "meta_norad_cat_id": 30697,
        "meta_element_set_no": 999,
        "meta_rev_at_epoch": 96301,
        "meta_bstar": 0.0012976224,
        "meta_mean_motion_dot": 2.493e-05,
        "meta_mean_motion_ddot": 0,
        "tle_line1": "1 30697U 99025ARF 25349.62264130  .00002493  00000+0  12976-2 0  9991",
        "tle_line2": "2 30697  98.9072  46.4528 0088127 177.2425 338.4172 14.13538077963011"
      },
      "geometry": {
        "type": "Point",
        "coordinates": [
          -81.67567302579174,
          78.55255560498614
        ]
      }
    },
    {
      "type": "Feature",
      "properties": {
        "norad_id": 30699,
        "name": "FENGYUN 1C DEB",
        "group": "fengyun-1c-debris",
        "lat": -11.183367251266418,
        "lon": 112.47539876537768,
        "alt_km": 740.5443942541087,
        "timestamp": "2025-12-16T17:51:11.209552+00:00",
        "meta_object_name": "FENGYUN 1C DEB",
        "meta_object_id": "1999-025ARH",
        "meta_epoch": "2025-12-15T07:03:16.815168",
        "meta_mean_motion": 14.46981789,
        "meta_eccentricity": 0.00044396,
        "meta_inclination": 99.3115,
        "meta_ra_of_asc_node": 109.0236,
        "meta_arg_of_pericenter": 248.2613,
        "meta_mean_anomaly": 111.8104,
        "meta_ephemeris_type": 0,
        "meta_classification_type": "U",
        "meta_norad_cat_id": 30699,
        "meta_element_set_no": 999,
        "meta_rev_at_epoch": 97650,
        "meta_bstar": 0.0014673508,
        "meta_mean_motion_dot": 5.287e-05,
        "meta_mean_motion_ddot": 0,
        "tle_line1": "1 30699U 99025ARH 25349.29394462  .00005287  00000+0  14674-2 0  9999",
        "tle_line2": "2 30699  99.3115 109.0236 0004439 248.2613 111.8104 14.46981789976504"
      },
      "geometry": {
        "type": "Point",
        "coordinates": [
          112.47539876537768,
          -11.183367251266418
        ]
      }
    },
    {
      "type": "Feature",
      "properties": {
        "norad_id": 30700,
        "name": "FENGYUN 1C DEB",
        "group": "fengyun-1c-debris",
        "lat": 70.8805999708469,
        "lon": -135.3639431106397,
        "alt_km": 748.5292564723159,
        "timestamp": "2025-12-16T17:51:11.209564+00:00",
        "meta_object_name": "FENGYUN 1C DEB",
        "meta_object_id": "1999-025ARJ",
        "meta_epoch": "2025-12-15T12:40:51.787488",
        "meta_mean_motion": 14.23796371,
        "meta_eccentricity": 0.00872134,
        "meta_inclination": 98.5415,
        "meta_ra_of_asc_node": 17.7636,
        "meta_arg_of_pericenter": 135.2494,
        "meta_mean_anomaly": 225.5764,
        "meta_ephemeris_type": 0,
        "meta_classification_type": "U",
        "meta_norad_cat_id": 30700,
        "meta_element_set_no": 999,
        "meta_rev_at_epoch": 97609,
        "meta_bstar": 0.00017862366,
        "meta_mean_motion_dot": 3.83e-06,
        "meta_mean_motion_ddot": 0,
        "tle_line1": "1 30700U 99025ARJ 25349.52837717  .00000383  00000+0  17862-3 0  9998",
        "tle_line2": "2 30700  98.5415  17.7636 0087213 135.2494 225.5764 14.23796371976098"
      },
      "geometry": {
        "type": "Point",
        "coordinates": [
          -135.3639431106397,
          70.8805999708469
        ]
      }
    },
    {
      "type": "Feature",
      "properties": {
        "norad_id": 30701,
        "name": "FENGYUN 1C DEB",
        "group": "fengyun-1c-debris",
        "lat": -19.68454756952966,
        "lon": 35.090136574615045,
        "alt_km": 860.3584188706409,
        "timestamp": "2025-12-16T17:51:11.209575+00:00",
        "meta_object_name": "FENGYUN 1C DEB",
        "meta_object_id": "1999-025ARK",
        "meta_epoch": "2025-12-15T13:48:37.560672",
        "meta_mean_motion": 14.1393466,
        "meta_eccentricity": 0.00357597,
        "meta_inclination": 98.7181,
        "meta_ra_of_asc_node": 30.8039,
        "meta_arg_of_pericenter": 94.899,
        "meta_mean_anomaly": 61.426,
        "meta_ephemeris_type": 0,
        "meta_classification_type": "U",
        "meta_norad_cat_id": 30701,
        "meta_element_set_no": 999,
        "meta_rev_at_epoch": 97159,
        "meta_bstar": 1.8177611e-05,
        "meta_mean_motion_dot": -8e-08,
        "meta_mean_motion_ddot": 0,
        "tle_line1": "1 30701U 99025ARK 25349.57543473 -.00000008  00000+0  18178-4 0  9994",
        "tle_line2": "2 30701  98.7181  30.8039 0035759  94.8990  61.4260 14.13934660971595"
      },
      "geometry": {
        "type": "Point",
        "coordinates": [
          35.090136574615045,
          -19.68454756952966
        ]
      }
    }
  ]
}